      2.10          N: GNSS NAV DATA                        RINEX VERSION / TYPE
fic2rin                                 04/08/2021 00:17:25 PGM / RUN BY / DATE
                                                            END OF HEADER
12 21  4  7 14  0  0.0-2.460787072778e-05-5.115907697473e-12 0.000000000000e+00
    2.000000000000e+01-1.993750000000e+01 4.347681098369e-09 2.138543675682e+00
   -1.346692442894e-06 8.484163787216e-03 6.612390279770e-06 5.153764013290e+03
    3.096000000000e+05-3.539025783539e-08 1.689692996804e+00-1.229345798492e-07
    9.738847682668e-01 2.560312500000e+02 1.195020680814e+00-7.889971506126e-09
   -5.207359764579e-10 1.000000000000e+00 2.152000000000e+03 0.000000000000e+00
    2.400000000000e+00 0.000000000000e+00-1.257285475731e-08 2.000000000000e+01
    3.024000000000e+05 4.000000000000e+00
 9 21  4  7 14  0  0.0-3.371550701559e-04-2.842170943040e-12 0.000000000000e+00
    1.600000000000e+01-4.471875000000e+01 4.521616914922e-09-1.588027974482e-01
   -2.587214112282e-06 1.912257866934e-03 1.118890941143e-05 5.153813669205e+03
    3.096000000000e+05 3.166496753693e-08-4.929762848410e-01 1.862645149231e-08
    9.535132478027e-01 1.597500000000e+02 1.836988476252e+00-7.977117993270e-09
    2.014369620866e-10 1.000000000000e+00 2.152000000000e+03 0.000000000000e+00
    2.400000000000e+00 0.000000000000e+00 1.396983861923e-09 1.600000000000e+01
    3.024000000000e+05 4.000000000000e+00
32 21  4  7 14  0  0.0 2.204207703471e-05 1.136868377216e-13 0.000000000000e+00
    1.500000000000e+01-3.037500000000e+01 4.470186201198e-09 9.359714029658e-02
   -1.609325408936e-06 4.827874014154e-03 1.162104308605e-05 5.153662702560e+03
    3.096000000000e+05-2.048909664154e-08-4.831583914521e-01 1.098960638046e-07
    9.575149680447e-01 1.562812500000e+02-2.394430019313e+00-7.959974422028e-09
    2.257236880119e-10 1.000000000000e+00 2.152000000000e+03 0.000000000000e+00
    2.400000000000e+00 0.000000000000e+00 4.656612873077e-10 1.500000000000e+01
    3.024000000000e+05 4.000000000000e+00
26 21  4  7 14  0  0.0 6.890995427966e-05 5.229594535194e-12 0.000000000000e+00
    1.400000000000e+01-1.325000000000e+01 5.325578974598e-09 1.136755219675e+00
   -4.228204488754e-07 5.800459417515e-03 5.988404154778e-06 5.153778858185e+03
    3.096000000000e+05 8.009374141693e-08 1.575618926944e+00 6.146728992462e-08
    9.421773545429e-01 2.520312500000e+02 3.001754350775e-01-8.503211335740e-09
   -5.446655446490e-10 1.000000000000e+00 2.152000000000e+03 0.000000000000e+00
    2.400000000000e+00 0.000000000000e+00 6.984919309616e-09 1.400000000000e+01
    3.024000000000e+05 4.000000000000e+00
19 21  4  7 14  0  0.0-1.607229933143e-05 5.002220859751e-12 0.000000000000e+00
    3.300000000000e+01 3.146875000000e+01 3.836945538469e-09 1.856135780054e+00
    1.518055796623e-06 9.161698748358e-03 1.022033393383e-05 5.153630321503e+03
    3.096000000000e+05 1.862645149231e-07 2.770799753400e+00-8.568167686462e-08
    9.811765707882e-01 1.893125000000e+02 1.805007413461e+00-7.611388473453e-09
   -1.817932867058e-10 1.000000000000e+00 2.152000000000e+03 0.000000000000e+00
    2.400000000000e+00 0.000000000000e+00-1.583248376846e-08 3.300000000000e+01
    3.024000000000e+05 4.000000000000e+00
17 21  4  7 14  0  0.0 4.225401207805e-04 6.025402399246e-12 0.000000000000e+00
    2.700000000000e+01 3.525000000000e+01 3.894090775940e-09-6.623193397561e-01
    1.909211277962e-06 1.336375134997e-02 1.062452793121e-05 5.153579750061e+03
    3.096000000000e+05-1.341104507446e-07 2.725609663874e+00 9.126961231232e-08
    9.826687852650e-01 1.908125000000e+02-1.570190318832e+00-7.949259690002e-09
   -9.643258823294e-11 1.000000000000e+00 2.152000000000e+03 0.000000000000e+00
    2.400000000000e+00 0.000000000000e+00-1.117587089539e-08 2.700000000000e+01
    3.024000000000e+05 4.000000000000e+00
15 21  4  7 14  0  0.0-1.578042283654e-04 2.614797267597e-12 0.000000000000e+00
    1.000000000000e+02-3.865625000000e+01 5.048424572862e-09-1.567003233300e+00
   -1.991167664528e-06 1.307675475255e-02 1.046992838383e-05 5.153595298767e+03
    3.096000000000e+05 2.961605787277e-07-5.906829258691e-01-7.450580596924e-09
    9.290913050907e-01 1.525312500000e+02 9.749271427488e-01-8.114980878669e-09
    1.607209803882e-10 1.000000000000e+00 2.152000000000e+03 0.000000000000e+00
    2.400000000000e+00 0.000000000000e+00-1.071020960808e-08 1.000000000000e+02
    3.024000000000e+05 4.000000000000e+00
31 21  4  7 14  0  0.0-1.101982779801e-04-2.273736754432e-12 0.000000000000e+00
    8.000000000000e+01 4.412500000000e+01 5.034852578962e-09 2.327822602835e+00
    2.324581146240e-06 9.944935794920e-03 6.875023245811e-06 5.153759258270e+03
    3.096000000000e+05-2.365559339523e-07 5.961598570910e-01 5.960464477539e-08
    9.564013084905e-01 2.471250000000e+02 2.573507026840e-01-8.161411384115e-09
    3.050127050035e-10 1.000000000000e+00 2.152000000000e+03 0.000000000000e+00
    2.400000000000e+00 0.000000000000e+00-1.303851604462e-08 8.000000000000e+01
    3.024000000000e+05 4.000000000000e+00
30 21  4  7 14  0  0.0-4.095295444131e-04-5.343281372916e-12 0.000000000000e+00
    6.700000000000e+01 5.309375000000e+01 5.406653780260e-09 2.750175690851e+00
    2.810731530190e-06 5.048004677519e-03 6.651505827904e-06 5.153721469879e+03
    3.096000000000e+05-8.009374141693e-08 5.972189029873e-01-7.264316082001e-08
    9.372976479235e-01 2.416875000000e+02-2.819270404534e+00-8.364276977138e-09
    3.782300405137e-10 1.000000000000e+00 2.152000000000e+03 0.000000000000e+00
    2.400000000000e+00 0.000000000000e+00 3.725290298462e-09 6.700000000000e+01
    3.024000000000e+05 4.000000000000e+00
27 21  4  7 14  0  0.0-1.084129326046e-04-6.934897101019e-12 0.000000000000e+00
    4.000000000000e+01 4.740625000000e+01 3.941592754588e-09-6.494185454720e-01
    2.365559339523e-06 9.348206920549e-03 1.048296689987e-05 5.153684310913e+03
    3.096000000000e+05 1.192092895508e-07 2.665239337185e+00 1.471489667892e-07
    9.764752055861e-01 1.852500000000e+02 6.010685938567e-01-7.868184884340e-09
   -2.482246252663e-10 1.000000000000e+00 2.152000000000e+03 0.000000000000e+00
    2.400000000000e+00 0.000000000000e+00 1.862645149231e-09 4.000000000000e+01
    3.024000000000e+05 4.000000000000e+00
22 21  4  7 14  0  0.0-6.433250382543e-04 8.640199666843e-12 0.000000000000e+00
    4.900000000000e+01-8.256250000000e+01 5.259147636037e-09-1.624178359651e+00
   -4.086643457413e-06 7.063453551382e-03 4.205852746964e-06 5.153565269470e+03
    3.096000000000e+05-9.685754776001e-08-1.620885971813e+00 1.080334186554e-07
    9.339415836500e-01 2.860937500000e+02-1.004178001027e+00-8.677504310028e-09
   -4.643050544549e-11 1.000000000000e+00 2.152000000000e+03 0.000000000000e+00
    2.400000000000e+00 0.000000000000e+00-1.816079020500e-08 4.900000000000e+01
    3.024000000000e+05 4.000000000000e+00
21 21  4  7 14  0  0.0 1.091999001801e-04 2.955857780762e-12 0.000000000000e+00
    4.800000000000e+01 5.371875000000e+01 4.686623788121e-09-4.548761736585e-01
    2.808868885040e-06 2.419328235555e-02 5.252659320831e-06 5.153697050095e+03
    3.096000000000e+05-5.122274160385e-07-2.643713063798e+00-8.940696716309e-08
    9.568248700879e-01 2.833125000000e+02-1.158619918679e+00-8.648931691292e-09
    4.546617956316e-10 1.000000000000e+00 2.152000000000e+03 0.000000000000e+00
    2.400000000000e+00 0.000000000000e+00-1.024454832077e-08 4.800000000000e+01
    3.024000000000e+05 4.000000000000e+00
25 21  4  7 14  0  0.0 1.140125095844e-04 7.275957614183e-12 0.000000000000e+00
    3.500000000000e+01-1.778125000000e+01 4.749840707074e-09 1.817107612660e+00
   -1.138076186180e-06 9.933255147189e-03 6.634742021561e-06 5.153642835617e+03
    3.096000000000e+05-2.142041921616e-07 1.616788186129e+00-1.080334186554e-07
    9.612264936160e-01 2.536250000000e+02 9.589732779320e-01-8.141767708734e-09
   -4.493044296187e-10 1.000000000000e+00 2.152000000000e+03 0.000000000000e+00
    2.400000000000e+00 0.000000000000e+00 5.587935447693e-09 3.500000000000e+01
    3.024000000000e+05 4.000000000000e+00
24 21  4  7 14  0  0.0 7.078051567078e-08-4.547473508865e-13 0.000000000000e+00
    1.040000000000e+02 5.431250000000e+01 5.410582515336e-09-2.463395231099e+00
    2.648681402206e-06 1.102284796070e-02 6.724148988724e-06 5.153735874176e+03
    3.096000000000e+05 1.676380634308e-07 5.018738827988e-01-1.788139343262e-07
    9.355162686705e-01 2.354375000000e+02 7.385312142638e-01-8.366777081277e-09
    4.410898017322e-10 1.000000000000e+00 2.152000000000e+03 0.000000000000e+00
    3.400000000000e+00 0.000000000000e+00 2.793967723846e-09 1.040000000000e+02
    3.024000000000e+05 4.000000000000e+00
28 21  4  7 14  0  0.0 5.903816781938e-04-5.911715561524e-12 0.000000000000e+00
    6.100000000000e+01-2.356250000000e+01 4.620192449561e-09 1.057137958611e-01
   -1.177191734314e-06 1.774422847666e-02 7.014721632004e-06 5.153663145065e+03
    3.096000000000e+05-2.142041921616e-07 1.712040906427e+00-1.601874828339e-07
    9.730638430091e-01 2.565312500000e+02-1.345482836624e+00-8.414636217660e-09
   -5.118070331030e-10 1.000000000000e+00 2.152000000000e+03 0.000000000000e+00
    3.400000000000e+00 0.000000000000e+00-1.117587089539e-08 6.100000000000e+01
    3.024000000000e+05 4.000000000000e+00
20 21  4  7 14  0  0.0 5.234200507402e-04-3.410605131648e-13 0.000000000000e+00
    8.500000000000e+01-6.962500000000e+01 5.141999899221e-09 3.089034392830e+00
   -3.421679139137e-06 6.036281352863e-03 4.090368747711e-06 5.151697340012e+03
    3.096000000000e+05-1.192092895508e-07-1.667375729463e+00 1.862645149231e-09
    9.372462892585e-01 2.856875000000e+02 3.019157175969e+00-8.491067972778e-09
   -5.107355599004e-11 1.000000000000e+00 2.152000000000e+03 0.000000000000e+00
    2.400000000000e+00 0.000000000000e+00-8.381903171539e-09 8.500000000000e+01
    3.024000000000e+05 4.000000000000e+00
